start=new Date('2023-06-24T00:00:00.000Z').valueOf();
sats=[{"BSTAR":"0.00003020500000","OBJECT_TYPE":"PAYLOAD","REV_AT_EPOCH":"6199","PERIOD":"95.437","MEAN_ANOMALY":"269.7601","SEMIMAJOR_AXIS":"6917.871","MEAN_MOTION":"15.08842957","ELEMENT_SET_NO":"999","INCLINATION":"53.2178","TIME_SYSTEM":"UTC","OBJECT_NAME":"STARLINK-3991","ECCENTRICITY":"0.00010720","SITE":"AFETR","DECAY_DATE":null,"CENTER_NAME":"EARTH","COUNTRY_CODE":"US","TLE_LINE2":"2 52641  53.2178  25.1266 0001072  90.3514 269.7601 15.08842957 61995","APOAPSIS":"540.478","FILE":"3940776","OBJECT_ID":"2022-052AV","MEAN_MOTION_DDOT":"0.0000000000000","GP_ID":"234504976","LAUNCH_DATE":"2022-05-14","PERIAPSIS":"538.995","REF_FRAME":"TEME","EPOCH":"2023-06-23T07:20:39.729696","EPHEMERIS_TYPE":"0","TLE_LINE1":"1 52641U 22052AV  23174.30601539  .00000193  00000-0  30205-4 0  9990","MEAN_ELEMENT_THEORY":"SGP4","CLASSIFICATION_TYPE":"U","RCS_SIZE":"LARGE","MEAN_MOTION_DOT":"0.00000193","NORAD_CAT_ID":"52641","ARG_OF_PERICENTER":"90.3514","RA_OF_ASC_NODE":"25.1266"},{"EPOCH":"2023-06-22T23:39:38.011104","CLASSIFICATION_TYPE":"U","EPHEMERIS_TYPE":"0","TLE_LINE1":"1 52642U 22052AW  23173.98585661  .00002261  00000-0  16008-3 0  9993","MEAN_ELEMENT_THEORY":"SGP4","RCS_SIZE":"LARGE","NORAD_CAT_ID":"52642","MEAN_MOTION_DOT":"0.00002261","RA_OF_ASC_NODE":"26.5590","ARG_OF_PERICENTER":"103.8718","APOAPSIS":"540.524","FILE":"3940293","TLE_LINE2":"2 52642  53.2172  26.5590 0001139 103.8718 256.2401 15.08843088 61945","MEAN_MOTION_DDOT":"0.0000000000000","OBJECT_ID":"2022-052AW","GP_ID":"234493150","PERIAPSIS":"538.948","LAUNCH_DATE":"2022-05-14","REF_FRAME":"TEME","TIME_SYSTEM":"UTC","ECCENTRICITY":"0.00011390","OBJECT_NAME":"STARLINK-3971","SITE":"AFETR","CENTER_NAME":"EARTH","DECAY_DATE":null,"COUNTRY_CODE":"US","BSTAR":"0.00016008000000","OBJECT_TYPE":"PAYLOAD","REV_AT_EPOCH":"6194","PERIOD":"95.437","MEAN_ANOMALY":"256.2401","MEAN_MOTION":"15.08843088","SEMIMAJOR_AXIS":"6917.871","ELEMENT_SET_NO":"999","INCLINATION":"53.2172"},{"COUNTRY_CODE":"US","CENTER_NAME":"EARTH","DECAY_DATE":null,"ECCENTRICITY":"0.00011420","OBJECT_NAME":"STARLINK-3963","TIME_SYSTEM":"UTC","SITE":"AFETR","PERIOD":"95.437","MEAN_ANOMALY":"250.3350","REV_AT_EPOCH":"6195","SEMIMAJOR_AXIS":"6917.867","MEAN_MOTION":"15.08844420","ELEMENT_SET_NO":"999","INCLINATION":"53.2174","OBJECT_TYPE":"PAYLOAD","BSTAR":"0.00013379000000","MEAN_MOTION_DOT":"0.00001842","NORAD_CAT_ID":"52643","RA_OF_ASC_NODE":"26.3460","ARG_OF_PERICENTER":"109.7766","EPOCH":"2023-06-23T00:39:17.406720","RCS_SIZE":"LARGE","CLASSIFICATION_TYPE":"U","TLE_LINE1":"1 52643U 22052AX  23174.02728480  .00001842  00000-0  13379-3 0  9990","MEAN_ELEMENT_THEORY":"SGP4","EPHEMERIS_TYPE":"0","LAUNCH_DATE":"2022-05-14","PERIAPSIS":"538.942","GP_ID":"234493647","REF_FRAME":"TEME","MEAN_MOTION_DDOT":"0.0000000000000","OBJECT_ID":"2022-052AX","APOAPSIS":"540.522","FILE":"3940293","TLE_LINE2":"2 52643  53.2174  26.3460 0001142 109.7766 250.3350 15.08844420 61954"},{"CENTER_NAME":"EARTH","DECAY_DATE":null,"COUNTRY_CODE":"US","SITE":"AFETR","TIME_SYSTEM":"UTC","ECCENTRICITY":"0.00010920","OBJECT_NAME":"STARLINK-3985","MEAN_MOTION":"15.08841071","SEMIMAJOR_AXIS":"6917.877","ELEMENT_SET_NO":"999","INCLINATION":"53.2175","REV_AT_EPOCH":"6203","MEAN_ANOMALY":"271.5542","PERIOD":"95.437","BSTAR":"0.00013293000000","OBJECT_TYPE":"PAYLOAD","ARG_OF_PERICENTER":"88.5576","RA_OF_ASC_NODE":"23.9034","MEAN_MOTION_DOT":"0.00001828","NORAD_CAT_ID":"52644","CLASSIFICATION_TYPE":"U","TLE_LINE1":"1 52644U 22052AY  23174.57833601  .00001828  00000-0  13293-3 0  9992","EPHEMERIS_TYPE":"0","MEAN_ELEMENT_THEORY":"SGP4","RCS_SIZE":"LARGE","EPOCH":"2023-06-23T13:52:48.231264","REF_FRAME":"TEME","GP_ID":"234505635","LAUNCH_DATE":"2022-05-14","PERIAPSIS":"538.987","APOAPSIS":"540.498","FILE":"3940839","TLE_LINE2":"2 52644  53.2175  23.9034 0001092  88.5576 271.5542 15.08841071 62030","MEAN_MOTION_DDOT":"0.0000000000000","OBJECT_ID":"2022-052AY"},{"CENTER_NAME":"EARTH","DECAY_DATE":null,"COUNTRY_CODE":"US","TIME_SYSTEM":"UTC","ECCENTRICITY":"0.00009590","OBJECT_NAME":"STARLINK-3973","SITE":"AFETR","REV_AT_EPOCH":"6203","MEAN_ANOMALY":"274.0614","PERIOD":"95.438","SEMIMAJOR_AXIS":"6917.880","MEAN_MOTION":"15.08840161","ELEMENT_SET_NO":"999","INCLINATION":"53.2172","BSTAR":"0.00011333000000","OBJECT_TYPE":"PAYLOAD","MEAN_MOTION_DOT":"0.00001516","NORAD_CAT_ID":"52645","ARG_OF_PERICENTER":"86.0488","RA_OF_ASC_NODE":"24.0562","EPOCH":"2023-06-23T13:36:55.541664","CLASSIFICATION_TYPE":"U","TLE_LINE1":"1 52645U 22052AZ  23174.56730951  .00001516  00000-0  11333-3 0  9993","MEAN_ELEMENT_THEORY":"SGP4","EPHEMERIS_TYPE":"0","RCS_SIZE":"LARGE","GP_ID":"234505875","LAUNCH_DATE":"2022-05-14","PERIAPSIS":"539.081","REF_FRAME":"TEME","FILE":"3940839","APOAPSIS":"540.408","TLE_LINE2":"2 52645  53.2172  24.0562 0000959  86.0488 274.0614 15.08840161 62039","MEAN_MOTION_DDOT":"0.0000000000000","OBJECT_ID":"2022-052AZ"},{"COUNTRY_CODE":"US","CENTER_NAME":"EARTH","DECAY_DATE":null,"ECCENTRICITY":"0.00009320","OBJECT_NAME":"STARLINK-3832","TIME_SYSTEM":"UTC","SITE":"AFETR","MEAN_ANOMALY":"267.2976","PERIOD":"95.438","REV_AT_EPOCH":"6191","SEMIMAJOR_AXIS":"6917.887","ELEMENT_SET_NO":"999","MEAN_MOTION":"15.08837935","INCLINATION":"53.2191","OBJECT_TYPE":"PAYLOAD","BSTAR":"0.00009065100000","NORAD_CAT_ID":"52646","MEAN_MOTION_DOT":"0.00001155","RA_OF_ASC_NODE":"27.5241","ARG_OF_PERICENTER":"92.8123","EPOCH":"2023-06-22T18:33:39.832416","RCS_SIZE":"LARGE","CLASSIFICATION_TYPE":"U","TLE_LINE1":"1 52646U 22052BA  23173.77337769  .00001155  00000-0  90651-4 0  9996","MEAN_ELEMENT_THEORY":"SGP4","EPHEMERIS_TYPE":"0","LAUNCH_DATE":"2022-05-14","PERIAPSIS":"539.107","GP_ID":"234459254","REF_FRAME":"TEME","MEAN_MOTION_DDOT":"0.0000000000000","OBJECT_ID":"2022-052BA","FILE":"3939993","APOAPSIS":"540.396","TLE_LINE2":"2 52646  53.2191  27.5241 0000932  92.8123 267.2976 15.08837935 61911"},{"OBJECT_TYPE":"PAYLOAD","BSTAR":"0.00014130000000","MEAN_MOTION":"15.08837582","SEMIMAJOR_AXIS":"6917.888","ELEMENT_SET_NO":"999","INCLINATION":"53.2188","MEAN_ANOMALY":"275.8256","PERIOD":"95.438","REV_AT_EPOCH":"6203","SITE":"AFETR","ECCENTRICITY":"0.00011130","OBJECT_NAME":"STARLINK-3846","TIME_SYSTEM":"UTC","COUNTRY_CODE":"US","CENTER_NAME":"EARTH","DECAY_DATE":null,"MEAN_MOTION_DDOT":"0.0000000000000","OBJECT_ID":"2022-052BB","FILE":"3940840","APOAPSIS":"540.523","TLE_LINE2":"2 52647  53.2188  24.0876 0001113  84.2864 275.8256 15.08837582 62031","REF_FRAME":"TEME","PERIAPSIS":"538.983","LAUNCH_DATE":"2022-05-14","GP_ID":"234505647","RCS_SIZE":"LARGE","CLASSIFICATION_TYPE":"U","EPHEMERIS_TYPE":"0","TLE_LINE1":"1 52647U 22052BB  23174.55995201  .00001962  00000-0  14130-3 0  9998","MEAN_ELEMENT_THEORY":"SGP4","EPOCH":"2023-06-23T13:26:19.853664","ARG_OF_PERICENTER":"84.2864","RA_OF_ASC_NODE":"24.0876","NORAD_CAT_ID":"52647","MEAN_MOTION_DOT":"0.00001962"},{"SEMIMAJOR_AXIS":"6917.865","ELEMENT_SET_NO":"999","MEAN_MOTION":"15.08845198","INCLINATION":"53.2169","REV_AT_EPOCH":"6193","MEAN_ANOMALY":"259.5211","PERIOD":"95.437","BSTAR":"0.00006055000000","OBJECT_TYPE":"PAYLOAD","CENTER_NAME":"EARTH","DECAY_DATE":null,"COUNTRY_CODE":"US","SITE":"AFETR","TIME_SYSTEM":"UTC","ECCENTRICITY":"0.00010870","OBJECT_NAME":"STARLINK-3854","REF_FRAME":"TEME","GP_ID":"234493142","PERIAPSIS":"538.978","LAUNCH_DATE":"2022-05-14","FILE":"3940293","APOAPSIS":"540.481","TLE_LINE2":"2 52648  53.2169  26.9404 0001087 100.5903 259.5211 15.08845198 61935","MEAN_MOTION_DDOT":"0.0000000000000","OBJECT_ID":"2022-052BC","ARG_OF_PERICENTER":"100.5903","RA_OF_ASC_NODE":"26.9404","NORAD_CAT_ID":"52648","MEAN_MOTION_DOT":"0.00000676","CLASSIFICATION_TYPE":"U","TLE_LINE1":"1 52648U 22052BC  23173.90121256  .00000676  00000-0  60550-4 0  9997","MEAN_ELEMENT_THEORY":"SGP4","EPHEMERIS_TYPE":"0","RCS_SIZE":"LARGE","EPOCH":"2023-06-22T21:37:44.765184"},{"MEAN_ANOMALY":"260.9866","PERIOD":"95.437","REV_AT_EPOCH":"6192","SEMIMAJOR_AXIS":"6917.875","ELEMENT_SET_NO":"999","INCLINATION":"53.2168","MEAN_MOTION":"15.08841885","OBJECT_TYPE":"PAYLOAD","BSTAR":"0.00015921000000","COUNTRY_CODE":"US","CENTER_NAME":"EARTH","DECAY_DATE":null,"ECCENTRICITY":"0.00011550","OBJECT_NAME":"STARLINK-3868","TIME_SYSTEM":"UTC","SITE":"AFETR","LAUNCH_DATE":"2022-05-14","PERIAPSIS":"538.941","GP_ID":"234459269","REF_FRAME":"TEME","MEAN_MOTION_DDOT":"0.0000000000000","OBJECT_ID":"2022-052BD","FILE":"3940063","APOAPSIS":"540.539","TLE_LINE2":"2 52649  53.2168  27.2092 0001155  99.1257 260.9866 15.08841885 61923","MEAN_MOTION_DOT":"0.00002247","NORAD_CAT_ID":"52649","RA_OF_ASC_NODE":"27.2092","ARG_OF_PERICENTER":"99.1257","EPOCH":"2023-06-22T19:25:14.810880","RCS_SIZE":"LARGE","CLASSIFICATION_TYPE":"U","TLE_LINE1":"1 52649U 22052BD  23173.80919920  .00002247  00000-0  15921-3 0  9997","EPHEMERIS_TYPE":"0","MEAN_ELEMENT_THEORY":"SGP4"},{"PERIOD":"95.438","MEAN_ANOMALY":"272.0123","REV_AT_EPOCH":"6205","SEMIMAJOR_AXIS":"6917.893","MEAN_MOTION":"15.08835833","ELEMENT_SET_NO":"999","INCLINATION":"53.2174","OBJECT_TYPE":"PAYLOAD","BSTAR":"0.00008729100000","COUNTRY_CODE":"US","CENTER_NAME":"EARTH","DECAY_DATE":null,"ECCENTRICITY":"0.00011040","OBJECT_NAME":"STARLINK-3891","TIME_SYSTEM":"UTC","SITE":"AFETR","PERIAPSIS":"538.994","LAUNCH_DATE":"2022-05-14","GP_ID":"234459770","REF_FRAME":"TEME","MEAN_MOTION_DDOT":"0.0000000000000","OBJECT_ID":"2022-052BE","FILE":"3940063","APOAPSIS":"540.522","TLE_LINE2":"2 52650  53.2174  17.6048 0001104  88.0995 272.0123 15.08835833 62057","NORAD_CAT_ID":"52650","MEAN_MOTION_DOT":"0.00001102","RA_OF_ASC_NODE":"17.6048","ARG_OF_PERICENTER":"88.0995","EPOCH":"2023-06-22T18:38:55.569120","RCS_SIZE":"LARGE","CLASSIFICATION_TYPE":"U","EPHEMERIS_TYPE":"0","TLE_LINE1":"1 52650U 22052BE  23173.77703205  .00001102  00000-0  87291-4 0  9991","MEAN_ELEMENT_THEORY":"SGP4"}];
